{
    "links": {
        "self": "http://www.neowsapp.com/rest/v1/neo/3645543?api_key=iIulBulltgU6a56xZRHN4H3l9WmuAYTsLGpBGhQ2"
    },
    "id": "3645543",
    "neo_reference_id": "3645543",
    "name": "(2013 PF26)",
    "designation": "2013 PF26",
    "nasa_jpl_url": "http://ssd.jpl.nasa.gov/sbdb.cgi?sstr=3645543",
    "absolute_magnitude_h": 23.8,
    "estimated_diameter": {
        "kilometers": {
            "estimated_diameter_min": 0.046190746,
            "estimated_diameter_max": 0.1032856481
        },
        "meters": {
            "estimated_diameter_min": 46.1907460282,
            "estimated_diameter_max": 103.2856480504
        },
        "miles": {
            "estimated_diameter_min": 0.0287015901,
            "estimated_diameter_max": 0.0641787064
        },
        "feet": {
            "estimated_diameter_min": 151.544447199,
            "estimated_diameter_max": 338.8636855496
        }
    },
    "is_potentially_hazardous_asteroid": false,
    "close_approach_data": [
        {
            "close_approach_date": "2013-08-20",
            "close_approach_date_full": "2013-Aug-20 15:04",
            "epoch_date_close_approach": 1377011040000,
            "relative_velocity": {
                "kilometers_per_second": "3.0916912669",
                "kilometers_per_hour": "11130.0885610168",
                "miles_per_hour": "6915.8041950384"
            },
            "miss_distance": {
                "astronomical": "0.2202292453",
                "lunar": "85.6691764217",
                "kilometers": "32945826.008587511",
                "miles": "20471587.0016332118"
            },
            "orbiting_body": "Earth"
        }
    ],
    "orbital_data": {
        "orbit_id": "9",
        "orbit_determination_date": "2017-04-06 08:45:09",
        "first_observation_date": "2013-08-09",
        "last_observation_date": "2013-09-12",
        "data_arc_in_days": 34,
        "observations_used": 18,
        "orbit_uncertainty": "7",
        "minimum_orbit_intersection": ".216807",
        "jupiter_tisserand_invariant": "3.531",
        "epoch_osculation": "2459000.5",
        "eccentricity": ".4422375042056844",
        "semi_major_axis": "2.199484313573115",
        "inclination": "2.579086495418682",
        "ascending_node_longitude": "354.7224331190142",
        "orbital_period": "1191.460723387572",
        "perihelion_distance": "1.226789860198988",
        "perihelion_argument": "333.557070970927",
        "aphelion_distance": "3.172178766947243",
        "perihelion_time": "2458909.566158583419",
        "mean_anomaly": "27.47567105434513",
        "mean_motion": ".3021501195410325",
        "equinox": "J2000",
        "orbit_class": {
            "orbit_class_type": "AMO",
            "orbit_class_description": "Near-Earth asteroid orbits similar to that of 1221 Amor",
            "orbit_class_range": "1.017 AU < q (perihelion) < 1.3 AU"
        }
    },
    "is_sentry_object": false
}